CCSDS_OMM_VERS = 2.0
CREATION_DATE  = 
ORIGINATOR     = 

OBJECT_NAME    = CZ-2C R/B
OBJECT_ID      = 2022-132E
CENTER_NAME    = EARTH
REF_FRAME      = TEME
TIME_SYSTEM    = UTC
MEAN_ELEMENT_THEORY = SGP/SGP4

EPOCH          = 2026-02-21T11:22:59.820672
MEAN_MOTION    = 15.60343936
ECCENTRICITY   = .00201722
INCLINATION    = 97.2965
RA_OF_ASC_NODE = 55.3191
ARG_OF_PERICENTER = 143.8618
MEAN_ANOMALY   = 216.4007

EPHEMERIS_TYPE = 0
CLASSIFICATION_TYPE = U
NORAD_CAT_ID   = 54039
ELEMENT_SET_NO = 999
REV_AT_EPOCH   = 18784
BSTAR          = .53264031E-3
MEAN_MOTION_DOT = .44066E-3
MEAN_MOTION_DDOT = 0

CCSDS_OMM_VERS = 2.0
CREATION_DATE  = 
ORIGINATOR     = 

OBJECT_NAME    = GSLV R/B
OBJECT_ID      = 2022-138AN
CENTER_NAME    = EARTH
REF_FRAME      = TEME
TIME_SYSTEM    = UTC
MEAN_ELEMENT_THEORY = SGP/SGP4

EPOCH          = 2026-02-21T09:46:30.130752
MEAN_MOTION    = 14.96642147
ECCENTRICITY   = .00206395
INCLINATION    = 87.3881
RA_OF_ASC_NODE = 171.8104
ARG_OF_PERICENTER = 205.2307
MEAN_ANOMALY   = 154.7918

EPHEMERIS_TYPE = 0
CLASSIFICATION_TYPE = U
NORAD_CAT_ID   = 54149
ELEMENT_SET_NO = 999
REV_AT_EPOCH   = 18149
BSTAR          = .32408066E-3
MEAN_MOTION_DOT = .3736E-4
MEAN_MOTION_DDOT = 0

CCSDS_OMM_VERS = 2.0
CREATION_DATE  = 
ORIGINATOR     = 

OBJECT_NAME    = XRISM
OBJECT_ID      = 2023-137A
CENTER_NAME    = EARTH
REF_FRAME      = TEME
TIME_SYSTEM    = UTC
MEAN_ELEMENT_THEORY = SGP/SGP4

EPOCH          = 2026-02-21T07:52:38.149248
MEAN_MOTION    = 15.11281678
ECCENTRICITY   = .00082681
INCLINATION    = 31.0033
RA_OF_ASC_NODE = 29.4689
ARG_OF_PERICENTER = 236.1766
MEAN_ANOMALY   = 123.8086

EPHEMERIS_TYPE = 0
CLASSIFICATION_TYPE = U
NORAD_CAT_ID   = 57800
ELEMENT_SET_NO = 999
REV_AT_EPOCH   = 13531
BSTAR          = .31375868E-3
MEAN_MOTION_DOT = .5513E-4
MEAN_MOTION_DDOT = 0

CCSDS_OMM_VERS = 2.0
CREATION_DATE  = 
ORIGINATOR     = 

OBJECT_NAME    = ACS3
OBJECT_ID      = 2024-077B
CENTER_NAME    = EARTH
REF_FRAME      = TEME
TIME_SYSTEM    = UTC
MEAN_ELEMENT_THEORY = SGP/SGP4

EPOCH          = 2026-02-21T10:28:32.167488
MEAN_MOTION    = 13.88865456
ECCENTRICITY   = .00496177
INCLINATION    = 97.2163
RA_OF_ASC_NODE = 357.2037
ARG_OF_PERICENTER = 123.5008
MEAN_ANOMALY   = 237.0911

EPHEMERIS_TYPE = 0
CLASSIFICATION_TYPE = U
NORAD_CAT_ID   = 59588
ELEMENT_SET_NO = 999
REV_AT_EPOCH   = 9194
BSTAR          = .11759711E-1
MEAN_MOTION_DOT = .1435E-3
MEAN_MOTION_DDOT = 0

CCSDS_OMM_VERS = 2.0
CREATION_DATE  = 
ORIGINATOR     = 

OBJECT_NAME    = SZ-21 MODULE
OBJECT_ID      = 2025-246C
CENTER_NAME    = EARTH
REF_FRAME      = TEME
TIME_SYSTEM    = UTC
MEAN_ELEMENT_THEORY = SGP/SGP4

EPOCH          = 2026-02-21T09:14:04.310304
MEAN_MOTION    = 15.67228178
ECCENTRICITY   = .00016493
INCLINATION    = 41.4754
RA_OF_ASC_NODE = 303.6299
ARG_OF_PERICENTER = 294.6489
MEAN_ANOMALY   = 65.4180

EPHEMERIS_TYPE = 0
CLASSIFICATION_TYPE = U
NORAD_CAT_ID   = 66515
ELEMENT_SET_NO = 999
REV_AT_EPOCH   = 1551
BSTAR          = .31960011E-3
MEAN_MOTION_DOT = .35146E-3
MEAN_MOTION_DDOT = 0

